CUTE-1 (CO-55)          
1 27844U 03031E   23242.01799493  .00000381  00000+0  18888-3 0  9994
2 27844  98.6799 248.2001 0008514 272.1321  87.8882 14.22857432 46265
CUBESAT XI-IV (CO-57)   
1 27848U 03031J   23241.98441017  .00000323  00000+0  16487-3 0  9998
2 27848  98.6835 248.5539 0008511 289.9916  70.0345 14.22357691 46048
CUBESAT XI-V            
1 28895U 05043F   23241.59061117  .00001831  00000+0  34293-3 0  9992
2 28895  98.1629  13.1389 0015901 197.0384 163.0288 14.65936468951568
CUTE-1.7+APD II (CO-65) 
1 32785U 08021C   23241.73939790  .00003208  00000+0  31465-3 0  9999
2 32785  97.7122 206.1730 0010823 211.0251 149.0330 14.92881199831790
AAUSAT-II               
1 32788U 08021F   23241.83502644  .00010782  00000+0  75378-3 0  9993
2 32788  97.5641 219.7111 0009973 101.9656 258.2689 15.05439552834284
DELFI-C3 (DO-64)        
1 32789U 08021G   23242.02308729  .00090709  00000+0  17209-2 0  9999
2 32789  97.2965 263.5436 0006936 172.1886 187.9474 15.47962961838868
SEEDS II (CO-66)        
1 32791U 08021J   23241.85715495  .00005980  00000+0  51550-3 0  9999
2 32791  97.6608 211.6154 0012739 155.9544 204.2276 14.97614598832768
SWISSCUBE               
1 35932U 09051B   23241.56218387  .00001035  00000+0  23638-3 0  9992
2 35932  98.5104 113.6294 0008222 132.9767 227.2122 14.57909564739902
BEESAT-1                
1 35933U 09051C   23241.46064054  .00000893  00000+0  20574-3 0  9999
2 35933  98.5030 114.7781 0006272 142.2951 217.8687 14.57794469739969
ITUPSAT1                
1 35935U 09051E   23241.61761623  .00000822  00000+0  19423-3 0  9997
2 35935  98.5129 114.8560 0008425 149.8354 210.3330 14.56831439739655
TISAT 1                 
1 36799U 10035E   23241.62025043  .00004086  00000+0  35939-3 0  9996
2 36799  98.1263 114.1288 0012665  90.2015 270.0657 14.97067311713217
M-CUBED & EXP-1 PRIME   
1 37855U 11061F   23241.51013749  .00021045  00000+0  59332-3 0  9995
2 37855 101.7091 244.8122 0110638 174.2614 185.9908 15.30527044647767
AEROCUBE 4.5A           
1 38767U 12048K   23241.21232545  .00006858  00000+0  46472-3 0  9994
2 38767  64.6638 169.6778 0113252 129.8427 231.2721 15.02118414216359
AEROCUBE 4.5B           
1 38768U 12048L   23241.82464862  .00013636  00000+0  75677-3 0  9992
2 38768  64.6637 109.1224 0092077 122.3380 238.6698 15.10395199217082
STRAND-1                
1 39090U 13009E   23241.53209556  .00000360  00000+0  13924-3 0  9991
2 39090  98.3877  72.8793 0009899  50.7215 309.4848 14.35669998550248
BRITE-AUSTRIA           
1 39091U 13009F   23241.46743111  .00000228  00000+0  93804-4 0  9993
2 39091  98.3909  72.0541 0011447  56.6994 303.5287 14.35533803550268
SOMP                    
1 39134U 13015E   23241.78369037  .01833569  28707-2  17341-2 0  9994
2 39134  64.8282  25.1634 0021227 282.9875  76.8927 16.11818744574970
BEESAT-3                
1 39135U 13015F   23241.81331635  .00054245  00000+0  93391-3 0  9990
2 39135  64.8541  88.6093 0017917 246.2125 113.7139 15.50586379573326
BEESAT-2                
1 39136U 13015G   23241.90494283  .00040965  00000+0  81833-3 0  9992
2 39136  64.8649 101.3423 0027687 263.3163  96.4826 15.46176881573051
NEE-01 PEGASO           
1 39151U 13018B   23242.00364192  .00002480  00000+0  31001-3 0  9991
2 39151  98.0147 352.3405 0014701 271.7761  88.1769 14.83186207558632
ESTCUBE 1               
1 39161U 13021C   23242.18989555  .00001777  00000+0  27363-3 0  9995
2 39161  97.8669 312.3506 0010632  92.9808 267.2618 14.74618519554074
POPACS 1                
1 39268U 13055D   23241.37829745  .00017128  00000+0  37228-3 0  9992
2 39268  80.9918 121.7432 0488141 299.5250  55.8116 14.71199581517187
POPACS 2                
1 39269U 13055E   23241.31820890  .00012074  00000+0  30259-3 0  9991
2 39269  81.0073 194.3834 0599896 128.3527 237.3167 14.44788637513130
POPACS 3                
1 39270U 13055F   23241.74202628  .00005249  00000+0  15288-3 0  9994
2 39270  81.0093 236.0799 0655694 245.7722 107.3628 14.29850298491070
ZACUBE-1 (TSHEPISOSAT)  
1 39417U 13066B   23242.13730294  .00003839  00000+0  43822-3 0  9996
2 39417  97.6912 201.2602 0055690  45.7316 314.8449 14.85526553528174
WNISAT-1                
1 39423U 13066H   23242.11543710  .00000860  00000+0  17599-3 0  9999
2 39423  97.6952  94.9485 0171627 205.0478 154.2323 14.54329960518186
TRITON-1                
1 39427U 13066M   23242.03132664  .00003004  00000+0  45161-3 0  9995
2 39427  97.8325 165.1225 0105770 301.5251  57.5658 14.71490612523405
DELFI-N3XT              
1 39428U 13066N   23241.74403666  .00005426  00000+0  76959-3 0  9995
2 39428  97.8302 163.9959 0107909 313.7312  45.4998 14.73434438522969
GOMX-1                  
1 39430U 13066Q   23242.17289658  .00001973  00000+0  34493-3 0  9999
2 39430  97.7692 128.9821 0146336  99.1051 262.6741 14.62124001520343
CUBEBUG-2 (LO-74)       
1 39440U 13066AA  23241.81050907  .00002714  00000+0  34931-3 0  9994
2 39440  97.7759 188.1995 0075571 146.5157 214.0866 14.79909520525040
NEE-02 KRYSAOR          
1 39441U 13066AB  23241.82083072  .00001733  00000+0  23646-3 0  9996
2 39441  97.7869 184.9065 0078053 164.0200 196.3500 14.77796575524720
FUNCUBE-1 (AO-73)       
1 39444U 13066AE  23241.81064042  .00004981  00000+0  54276-3 0  9995
2 39444  97.6771 203.5604 0053445  31.8554 328.5876 14.87372168527178
UWE-3                   
1 39446U 13066AG  23241.80644269  .00003454  00000+0  41963-3 0  9994
2 39446  97.7396 194.3139 0066738  98.0322 262.8471 14.82552207525922
BRITE-CA1 (TORONTO)     
1 40020U 14033L   23241.97073650  .00000906  00000+0  15791-3 0  9996
2 40020  97.8362  25.4149 0083951 305.3429  53.9950 14.68168228492080
DUCHIFAT-1              
1 40021U 14033M   23241.80573082  .00007984  00000+0  66053-3 0  9993
2 40021  98.0662 208.2102 0013087  39.4027 320.8144 14.99123665500215
NANOSATC-BR1            
1 40024U 14033Q   23242.14335961  .00006027  00000+0  53011-3 0  9993
2 40024  98.0324 199.1904 0011581  44.1380 316.0763 14.96867797499997
QB50P1                  
1 40025U 14033R   23241.86085015  .00004888  00000+0  45597-3 0  9997
2 40025  98.0001 189.9882 0012520  56.4863 303.7551 14.94635526499650
QB50P2                  
1 40032U 14033Y   23242.09315371  .00004247  00000+0  40574-3 0  9991
2 40032  97.9693 183.6392 0012047  53.6336 306.5993 14.93769054499528
PERSEUS-M2              
1 40037U 14033AD  23241.74568696  .00001835  00000+0  20220-3 0  9993
2 40037  97.9060 167.2683 0015403  79.8195 280.4758 14.88692788498299
PERSEUS-M1              
1 40039U 14033AF  23241.78350603  .00001877  00000+0  20831-3 0  9990
2 40039  97.8910 164.1340 0015277  79.2005 281.0931 14.88364722498163
POLYITAN-1              
1 40042U 14033AJ  23241.81691846  .00007370  00000+0  66585-3 0  9995
2 40042  98.0123 192.0450 0014454  49.1303 311.1167 14.95701585499045
TIGRISAT                
1 40043U 14033AK  23241.43526672  .00002362  00000+0  33451-3 0  9990
2 40043  97.6703  52.7952 0057529 174.5206 185.6647 14.76824253494228
AEROCUBE 6A             
1 40045U 14033AM  23241.49845536  .00004397  00000+0  58208-3 0  9998
2 40045  97.6593  62.7521 0054563 158.1444 202.2114 14.79357889494467
AEROCUBE 6B             
1 40046U 14033AN  23241.96713958  .00004643  00000+0  60360-3 0  9999
2 40046  97.6541  61.6983 0053289 153.3999 206.9966 14.80137763494945
UKUBE-1                 
1 40074U 14037F   23241.71832604  .00004054  00000+0  43744-3 0  9990
2 40074  98.3377 150.0754 0002940 334.0870  26.0198 14.88991442495190
BRITE-PL2 (HEWELIUSZ)   
1 40119U 14049B   23241.80429106  .00001910  00000+0  21957-3 0  9992
2 40119  97.8828 338.3345 0015363 243.8234 116.1402 14.86901030489101
GRIFEX                  
1 40379U 15003D   23242.12870881  .00057752  00000+0  10239-2 0  9992
2 40379  99.0787 197.0898 0070847  18.0682 342.3056 15.47241888474790
CP10 (EXOCUBE)          
1 40380U 15003E   23241.76373846  .00032464  00000+0  80194-3 0  9993
2 40380  99.0832 185.1673 0091970  55.2894 305.6965 15.36095026474004
EXACTVIEW 9             
1 40936U 15052G   23241.22266670  .00002654  00000+0  26531-3 0  9994
2 40936   6.0035 285.5881 0010688 245.5856 114.3157 14.78850697428082
AEROCUBE 5C             
1 40965U 15058B   23242.12648706  .00004349  00000+0  47289-3 0  9992
2 40965  64.7728 175.9451 0165611  44.6953 316.7363 14.79818523213770
AEROCUBE 7              
1 40966U 15058C   23242.08610050  .00005538  00000+0  58571-3 0  9996
2 40966  64.7716 171.8953 0162812  44.4063 316.9965 14.80865069213825
GALASSIA                
1 41170U 15077E   23241.05128762  .00068459  00000+0  12391-2 0  9995
2 41170  14.9881  34.0873 0007321  30.5204 329.5547 15.47756087427332
VELOX-II                
1 41171U 15077F   23241.98704787  .00022787  00000+0  71504-3 0  9991
2 41171  14.9898 140.7894 0005062 165.4970 194.5498 15.30621536426579
HORYU-4                 
1 41340U 16012D   23241.77316581  .00007275  00000+0  44278-3 0  9990
2 41340  31.0037  69.6316 0011054 263.6868  96.2511 15.08986461413841
E-ST@R-II               
1 41459U 16025D   23242.13778206  .00033446  00000+0  85562-3 0  9992
2 41459  98.1780  91.1823 0097088 200.0572 159.6843 15.34573801404225
AAUSAT 4                
1 41460U 16025E   23242.11485994  .00919058  38657-3  21744-2 0  9997
2 41460  98.1350 108.3121 0022509 145.1013 215.1742 15.96346332405375
BEESAT-4                
1 41619U 16040W   23242.07626679  .00277215  00000+0  12397-2 0  9995
2 41619  97.1409 293.2531 0003122 221.9024 138.2007 15.83487050388467
RAVAN                   
1 41849U 16067B   23241.41631140  .00005548  00000+0  37555-3 0  9997
2 41849  98.0440  39.0056 0014740 303.9923  55.9902 15.06864282371790
CELTEE 1                
1 41850U 16067C   23241.36519854  .00004606  00000+0  35365-3 0  9991
2 41850  98.0732  32.3768 0001155  95.4949 264.6406 15.02301366371400
